$$SOE
2460154.500000000, A.D. 2023-Jul-29 00:00:00.0000, -1.803843279276693E+08, 3.073731391585168E+08, 7.041549742320597E+06,
2460161.500000000, A.D. 2023-Aug-05 00:00:00.0000, -1.895098322717737E+08, 3.006155631458962E+08, 7.408853134376734E+06,
2460168.500000000, A.D. 2023-Aug-12 00:00:00.0000, -1.984304873799950E+08, 2.935330265353710E+08, 7.768147806098148E+06,
2460175.500000000, A.D. 2023-Aug-19 00:00:00.0000, -2.071347502437773E+08, 2.861303692624869E+08, 8.118971002998725E+06,
2460182.500000000, A.D. 2023-Aug-26 00:00:00.0000, -2.156110783113096E+08, 2.784128274548886E+08, 8.460859781184241E+06,
2460189.500000000, A.D. 2023-Sep-02 00:00:00.0000, -2.238479404287488E+08, 2.703860442610905E+08, 8.793351438840359E+06,
2460196.500000000, A.D. 2023-Sep-09 00:00:00.0000, -2.318338287525501E+08, 2.620560806157171E+08, 9.115983975650758E+06,
2460203.500000000, A.D. 2023-Sep-16 00:00:00.0000, -2.395572715154538E+08, 2.534294258272951E+08, 9.428296562096536E+06,
2460210.500000000, A.D. 2023-Sep-23 00:00:00.0000, -2.470068462798869E+08, 2.445130082125475E+08, 9.729830006030619E+06,
2460217.500000000, A.D. 2023-Sep-30 00:00:00.0000, -2.541711940685591E+08, 2.353142068980254E+08, 1.002012734709576E+07,
2460224.500000000, A.D. 2023-Oct-07 00:00:00.0000, -2.610390367772897E+08, 2.258408641722335E+08, 1.029873475239851E+07,
2460231.500000000, A.D. 2023-Oct-14 00:00:00.0000, -2.675991968743854E+08, 2.161012949962752E+08, 1.056520234913364E+07,
2460238.500000000, A.D. 2023-Oct-21 00:00:00.0000, -2.738406161918923E+08, 2.061042951798083E+08, 1.081908483132294E+07,
2460245.500000000, A.D. 2023-Oct-28 00:00:00.0000, -2.797523752731695E+08, 1.958591503764807E+08, 1.105994215795167E+07,
2460252.500000000, A.D. 2023-Nov-04 00:00:00.0000, -2.853237145658596E+08, 1.853756450239167E+08, 1.128734039547819E+07,
2460259.500000000, A.D. 2023-Nov-11 00:00:00.0000, -2.905440573097889E+08, 1.746640705149815E+08, 1.150085264072519E+07,
2460266.500000000, A.D. 2023-Nov-18 00:00:00.0000, -2.954030339196616E+08, 1.637352324109220E+08, 1.170005999995703E+07,
2460273.500000000, A.D. 2023-Nov-25 00:00:00.0000, -2.998905078025366E+08, 1.526004565857567E+08, 1.188455262009721E+07,
2460280.500000000, A.D. 2023-Dec-02 00:00:00.0000, -3.039966025855737E+08, 1.412715941511880E+08, 1.205393076889989E+07,
2460287.500000000, A.D. 2023-Dec-09 00:00:00.0000, -3.077117306668951E+08, 1.297610249577391E+08, 1.220780595190398E+07,
2460294.500000000, A.D. 2023-Dec-16 00:00:00.0000, -3.110266227750965E+08, 1.180816595322525E+08, 1.234580204001312E+07,
2460301.500000000, A.D. 2023-Dec-23 00:00:00.0000, -3.139323581418742E+08, 1.062469399761937E+08, 1.246755643045651E+07,
2460308.500000000, A.D. 2023-Dec-30 00:00:00.0000, -3.164203965655871E+08, 9.427084069753936E+07, 1.257272144759110E+07,
2460315.500000000, A.D. 2024-Jan-06 00:00:00.0000, -3.184826140713748E+08, 8.216786643155611E+07, 1.266096595016032E+07,
2460322.500000000, A.D. 2024-Jan-13 00:00:00.0000, -3.201113389193832E+08, 6.995304556522807E+07, 1.273197670282819E+07,
2460329.500000000, A.D. 2024-Jan-20 00:00:00.0000, -3.212993866343038E+08, 5.764192167577717E+07, 1.278545964790083E+07,
2460336.500000000, A.D. 2024-Jan-27 00:00:00.0000, -3.220400959588484E+08, 4.525054375871553E+07, 1.282114131130987E+07,
2460343.500000000, A.D. 2024-Feb-03 00:00:00.0000, -3.223273660156196E+08, 3.279545402545088E+07, 1.283877029811575E+07,
2460350.500000000, A.D. 2024-Feb-10 00:00:00.0000, -3.221556942276493E+08, 2.029367281523262E+07, 1.283811882125923E+07,
2460357.500000000, A.D. 2024-Feb-17 00:00:00.0000, -3.215202146575773E+08, 7.762680469657780E+06, 1.281898424371307E+07,
2460364.500000000, A.D. 2024-Feb-24 00:00:00.0000, -3.204167365042338E+08, -4.779603966974927E+06, 1.278119062318929E+07,
2460371.500000000, A.D. 2024-Mar-02 00:00:00.0000, -3.188417824794539E+08, -1.731484739141873E+07, 1.272459024435025E+07,
2460378.500000000, A.D. 2024-Mar-09 00:00:00.0000, -3.167926266556145E+08, -2.982433081072271E+07, 1.264906511004598E+07,
2460385.500000000, A.D. 2024-Mar-16 00:00:00.0000, -3.142673310944436E+08, -4.228898093493254E+07, 1.255452835990990E+07,
2460392.500000000, A.D. 2024-Mar-23 00:00:00.0000, -3.112647810423129E+08, -5.468940415224688E+07, 1.244092570383462E+07,
2460399.500000000, A.D. 2024-Mar-30 00:00:00.0000, -3.077847205919586E+08, -6.700592295220016E+07, 1.230823705975081E+07,
2460406.500000000, A.D. 2024-Apr-06 00:00:00.0000, -3.038277881971173E+08, -7.921861817184073E+07, 1.215647808183204E+07,
2460413.500000000, A.D. 2024-Apr-13 00:00:00.0000, -2.993955481169899E+08, -9.130737619767432E+07, 1.198570130619488E+07,
2460420.500000000, A.D. 2024-Apr-20 00:00:00.0000, -2.944905183514406E+08, -1.032519383748054E+08, 1.179599720460087E+07,
2460427.500000000, A.D. 2024-Apr-27 00:00:00.0000, -2.891161961825607E+08, -1.150319530766085E+08, 1.158749522352011E+07,
2460434.500000000, A.D. 2024-May-04 00:00:00.0000, -2.832770808423177E+08, -1.266270309919411E+08, 1.136036472721170E+07,
2460441.500000000, A.D. 2024-May-11 00:00:00.0000, -2.769786926910248E+08, -1.380168035347200E+08, 1.111481579992493E+07,
2460448.500000000, A.D. 2024-May-18 00:00:00.0000, -2.702275884584123E+08, -1.491809841010530E+08, 1.085109988767220E+07,
2460455.500000000, A.D. 2024-May-25 00:00:00.0000, -2.630313721681654E+08, -1.600994318749780E+08, 1.056951026322305E+07,
2460462.500000000, A.D. 2024-Jun-01 00:00:00.0000, -2.553987013512979E+08, -1.707522178851547E+08, 1.027038229100027E+07,
2460469.500000000, A.D. 2024-Jun-08 00:00:00.0000, -2.473392879956289E+08, -1.811196929339342E+08, 9.954093455146544E+06,
2460476.500000000, A.D. 2024-Jun-15 00:00:00.0000, -2.388638935617722E+08, -1.911825564081781E+08, 9.621063147794947E+06,
2460483.500000000, A.D. 2024-Jun-22 00:00:00.0000, -2.299843188434384E+08, -2.009219243102522E+08, 9.271752396577001E+06,
2460490.500000000, A.D. 2024-Jun-29 00:00:00.0000, -2.207133906157631E+08, -2.103193978093553E+08, 8.906663569709376E+06,
2460497.500000000, A.D. 2024-Jul-06 00:00:00.0000, -2.110649423088683E+08, -2.193571342383229E+08, 8.526339608936116E+06,
2460504.500000000, A.D. 2024-Jul-13 00:00:00.0000, -2.010537867055237E+08, -2.280179171432524E+08, 8.131362840187401E+06,
2460511.500000000, A.D. 2024-Jul-20 00:00:00.0000, -1.906956826611659E+08, -2.362852236492627E+08, 7.722353638699621E+06,
2460518.500000000, A.D. 2024-Jul-27 00:00:00.0000, -1.800072965803207E+08, -2.441432895043517E+08, 7.299968933487952E+06,
2460525.500000000, A.D. 2024-Aug-03 00:00:00.0000, -1.690061585218867E+08, -2.515771715825724E+08, 6.864900500687495E+06,
2460532.500000000, A.D. 2024-Aug-10 00:00:00.0000, -1.577106129840358E+08, -2.585728072749318E+08, 6.417873037818894E+06,
2460539.500000000, A.D. 2024-Aug-17 00:00:00.0000, -1.461397646116929E+08, -2.651170701959267E+08, 5.959642027327493E+06,
2460546.500000000, A.D. 2024-Aug-24 00:00:00.0000, -1.343134191581152E+08, -2.711978217084164E+08, 5.490991399115503E+06,
2460553.500000000, A.D. 2024-Aug-31 00:00:00.0000, -1.222520200061869E+08, -2.768039578488929E+08, 5.012730993021727E+06,
2460560.500000000, A.D. 2024-Sep-07 00:00:00.0000, -1.099765803623635E+08, -2.819254510979704E+08, 4.525693816856518E+06,
2460567.500000000, A.D. 2024-Sep-14 00:00:00.0000, -9.750861156907444E+07, -2.865533856281875E+08, 4.030733194571272E+06,
2460574.500000000, A.D. 2024-Sep-21 00:00:00.0000, -8.487005013951002E+07, -2.906799853021155E+08, 3.528720047178373E+06,
2460581.500000000, A.D. 2024-Sep-28 00:00:00.0000, -7.208318460757369E+07, -2.942986373942869E+08, 3.020540111110672E+06,
2460588.500000000, A.D. 2024-Oct-05 00:00:00.0000, -5.917057914486642E+07, -2.974039118521909E+08, 2.507090781749457E+06,
2460595.500000000, A.D. 2024-Oct-12 00:00:00.0000, -4.615499493225251E+07, -2.999915730150307E+08, 1.989277883150816E+06,
2460602.500000000, A.D. 2024-Oct-19 00:00:00.0000, -3.305931166471798E+07, -3.020585840497164E+08, 1.468012527034193E+06,
2460609.500000000, A.D. 2024-Oct-26 00:00:00.0000, -1.990644985165732E+07, -3.036031049813040E+08, 9.442080237022638E+05,
2460616.500000000, A.D. 2024-Nov-02 00:00:00.0000, -6.719294279420060E+06, -3.046244846124856E+08, 4.187768345426321E+05,
2460623.500000000, A.D. 2024-Nov-09 00:00:00.0000, 6.479380860683467E+06, -3.051232465144874E+08, -1.073724168621302E+05,
2460630.500000000, A.D. 2024-Nov-16 00:00:00.0000, 1.966698464626879E+07, -3.051010693487062E+08, -6.333378551189899E+05,
2460637.500000000, A.D. 2024-Nov-23 00:00:00.0000, 3.282117943535812E+07, -3.045607618877215E+08, -1.158227172632843E+06,
2460644.500000000, A.D. 2024-Nov-30 00:00:00.0000, 4.591994796121276E+07, -3.035062331500038E+08, -1.681160361933067E+06,
2460651.500000000, A.D. 2024-Dec-07 00:00:00.0000, 5.894165752037433E+07, -3.019424576415422E+08, -2.201272347889021E+06,
2460658.500000000, A.D. 2024-Dec-14 00:00:00.0000, 7.186512021306305E+07, -2.998754349272389E+08, -2.717715342218459E+06,
2460665.500000000, A.D. 2024-Dec-21 00:00:00.0000, 8.466964662494452E+07, -2.973121452427586E+08, -3.229660797240630E+06,
2460672.500000000, A.D. 2024-Dec-28 00:00:00.0000, 9.733509469296300E+07, -2.942605046002835E+08, -3.736301373106092E+06,
2460679.500000000, A.D. 2025-Jan-04 00:00:00.0000, 1.098419161848335E+08, -2.907293175118829E+08, -4.236852955463827E+06,
2460686.500000000, A.D. 2025-Jan-11 00:00:00.0000, 1.221711988611022E+08, -2.867282261740573E+08, -4.730556415808365E+06,
2460693.500000000, A.D. 2025-Jan-18 00:00:00.0000, 1.343047033488654E+08, -2.822676575274619E+08, -5.216679102698743E+06,
2460700.500000000, A.D. 2025-Jan-25 00:00:00.0000, 1.462248949705694E+08, -2.773587691475688E+08, -5.694516124378800E+06,
2460707.500000000, A.D. 2025-Feb-01 00:00:00.0000, 1.579149707669756E+08, -2.720133944590037E+08, -6.163391444044113E+06,
2460714.500000000, A.D. 2025-Feb-08 00:00:00.0000, 1.693588818663121E+08, -2.662439876923372E+08, -6.622658794807166E+06,
2460721.500000000, A.D. 2025-Feb-15 00:00:00.0000, 1.805413513611808E+08, -2.600635690115677E+08, -7.071702423846900E+06,
$$EOE